ONEWEB-0667             
1 55827U 23029AH  26198.63336599 -.00000011  00000+0 -58290-4 0  9994
2 55827  87.9187 268.3652 0002000 103.5467 256.5889 13.20773429165169
ONEWEB-0669             
1 55828U 23029AJ  26198.47680738  .00000058  00000+0  11164-3 0  9991
2 55828  87.9184 268.4054 0001625  87.6119 272.5200 13.20769947165145
ONEWEB-0670             
1 55829U 23029AK  26198.50717690 -.00000100  00000+0 -30322-3 0  9991
2 55829  87.8954 283.6969 0001693 107.4772 252.6543 13.14502171163419
ONEWEB-0671             
1 55830U 23029AL  26198.54185123  .00000068  00000+0  13829-3 0  9991
2 55830  87.9187 298.9315 0001990 105.5759 254.5594 13.19726432162901
ONEWEB-0672             
1 55831U 23029AM  26198.16873967  .00000002  00000+0 -26728-4 0  9992
2 55831  87.9182 268.4605 0002064  90.8819 269.2551 13.20769895165100
ONEWEB-0673             
1 55832U 23029AN  26198.21568162  .00000102  00000+0  22210-3 0  9998
2 55832  87.9192 298.9896 0001924 103.5152 256.6195 13.19725646162866
ONEWEB-0674             
1 55833U 23029AP  26197.79039217 -.00000078  00000+0 -24517-3 0  9991
2 55833  87.8964 283.8171 0001650 105.0204 255.1108 13.14500967163303
ONEWEB-0675             
1 55834U 23029AQ  26198.45814814  .00000062  00000+0  12131-3 0  9990
2 55834  87.9187 298.9496 0002245  95.8568 264.2821 13.19723636162913
ONEWEB-0720             
1 55835U 23029AR  26197.84370936  .00000076  00000+0  15667-3 0  9997
2 55835  87.9184 299.0713 0002193 107.3330 252.8043 13.19726484162758
ONEWEB-0537             
1 56046U 23043A   26198.51739090  .00000119  00000+0  27641-3 0  9996
2 56046  87.9077 222.7467 0002145  88.5477 271.5900 13.16594300162951
ONEWEB-0538             
1 56047U 23043B   26198.51105509  .00000054  00000+0  10813-3 0  9990
2 56047  87.9078 222.7506 0002330  93.5309 266.6089 13.16593960162968
ONEWEB-0546             
1 56048U 23043C   26198.49838891  .00000068  00000+0  14454-3 0  9995
2 56048  87.9077 222.7532 0002237  75.4322 284.7057 13.16593624162959
ONEWEB-0547             
1 56049U 23043D   26198.07249945  .00000055  00000+0  10180-3 0  9994
2 56049  87.9236 238.0273 0002241  98.6698 261.4690 13.21827307162170
ONEWEB-0548             
1 56050U 23043E   26198.29492757  .00000083  00000+0  18473-3 0  9995
2 56050  87.9078 222.7892 0001595  93.7295 266.4018 13.16594971162927
ONEWEB-0549             
1 56051U 23043F   26198.36940197  .00000111  00000+0  23671-3 0  9998
2 56051  87.9229 237.9731 0002494  95.9665 264.1753 13.21827342162210
ONEWEB-0550             
1 56052U 23043G   26198.05317006  .00000108  00000+0  23085-3 0  9997
2 56052  87.9232 238.0343 0001890  98.4770 261.6578 13.21827235162173
ONEWEB-0551             
1 56053U 23043H   26198.42605726 -.00000033  00000+0 -12043-3 0  9999
2 56053  87.8977 253.2013 0002428 101.2686 258.8717 13.15547768160375
ONEWEB-0552             
1 56054U 23043J   26198.57798656 -.00000055  00000+0 -16445-3 0  9995
2 56054  87.9231 237.9342 0002115 102.2317 257.9054 13.21826247162240
ONEWEB-0553             
1 56055U 23043K   26198.50472138 -.00000039  00000+0 -13527-3 0  9993
2 56055  87.9074 222.7521 0001997  83.2437 276.8921 13.16594170162968
ONEWEB-0554             
1 56056U 23043L   26198.49205710 -.00000021  00000+0 -88771-4 0  9997
2 56056  87.9074 222.7633 0001542  95.4382 264.6925 13.16594210162945
ONEWEB-0555             
1 56057U 23043M   26198.07406746  .00000038  00000+0  65640-4 0  9990
2 56057  87.9080 222.8349 0002148  78.8174 281.3199 13.16594390162897
ONEWEB-0557             
1 56058U 23043N   26198.08831705 -.00000015  00000+0 -73004-4 0  9999
2 56058  87.9078 222.8418 0001204  58.7865 301.3384 13.16594264162897
ONEWEB-0558             
1 56059U 23043P   26198.11708657  .00000052  00000+0  95523-4 0  9992
2 56059  87.9235 238.0218 0002422  94.9702 265.1708 13.21826215162195
ONEWEB-0559             
1 56060U 23043Q   26198.55949312 -.00000069  00000+0 -19940-3 0  9995
2 56060  87.9235 237.9291 0002239 100.2479 259.8907 13.21824040162267
ONEWEB-0566             
1 56061U 23043R   26198.55276541 -.00000026  00000+0 -94757-4 0  9996
2 56061  87.9232 237.9287 0002325 101.9521 258.1874 13.21824325162241
ONEWEB-0568             
1 56062U 23043S   26198.48571488 -.00000041  00000+0 -14053-3 0  9994
2 56062  87.9076 222.7524 0002106  85.5454 274.5918 13.16596093162965
ONEWEB-0574             
1 56063U 23043T   26198.09186851  .00000024  00000+0  26667-4 0  9992
2 56063  87.9240 238.0251 0001884  94.2196 265.9153 13.21825977162224
ONEWEB-0575             
1 56064U 23043U   26198.47937754 -.00000077  00000+0 -23535-3 0  9991
2 56064  87.9077 222.7499 0001725  84.4690 275.6638 13.16595842162956
ONEWEB-0576             
1 56065U 23043V   26198.08038784  .00000024  00000+0  28907-4 0  9993
2 56065  87.9083 222.8379 0001890  89.8182 270.3165 13.16596127162897
ONEWEB-0577             
1 56066U 23043W   26198.08672929  .00000008  00000+0 -11529-4 0  9994
2 56066  87.9082 222.8342 0001325  84.4237 275.7045 13.16596119162923
