OBJECT_NAME,OBJECT_ID,EPOCH,MEAN_MOTION,ECCENTRICITY,INCLINATION,RA_OF_ASC_NODE,ARG_OF_PERICENTER,MEAN_ANOMALY,EPHEMERIS_TYPE,CLASSIFICATION_TYPE,NORAD_CAT_ID,ELEMENT_SET_NO,REV_AT_EPOCH,BSTAR,MEAN_MOTION_DOT,MEAN_MOTION_DDOT
ONEWEB-0667,2023-029AH,2026-07-17T15:12:02.821536,13.20773429,.00020003,87.9187,268.3652,103.5467,256.5889,0,U,55827,999,16516,-.58290081E-4,-.11E-6,0
ONEWEB-0669,2023-029AJ,2026-07-17T11:26:36.157632,13.20769947,.0001625,87.9184,268.4054,87.6119,272.5200,0,U,55828,999,16514,.11163765E-3,.58E-6,0
ONEWEB-0670,2023-029AK,2026-07-17T12:10:20.084160,13.14502171,.00016936,87.8954,283.6969,107.4772,252.6543,0,U,55829,999,16341,-.30322174E-3,-.1E-5,0
ONEWEB-0671,2023-029AL,2026-07-17T13:00:15.946272,13.19726432,.00019905,87.9187,298.9315,105.5759,254.5594,0,U,55830,999,16290,.13828561E-3,.68E-6,0
ONEWEB-0672,2023-029AM,2026-07-17T04:02:59.107488,13.20769895,.00020644,87.9182,268.4605,90.8819,269.2551,0,U,55831,999,16510,-.26728185E-4,.2E-7,0
ONEWEB-0673,2023-029AN,2026-07-17T05:10:34.891968,13.19725646,.00019248,87.9192,298.9896,103.5152,256.6195,0,U,55832,999,16286,.22210059E-3,.102E-5,0
ONEWEB-0674,2023-029AP,2026-07-16T18:58:09.883488,13.14500967,.00016507,87.8964,283.8171,105.0204,255.1108,0,U,55833,999,16330,-.24516884E-3,-.78E-6,0
ONEWEB-0675,2023-029AQ,2026-07-17T10:59:43.999296,13.19723636,.00022457,87.9187,298.9496,95.8568,264.2821,0,U,55834,999,16291,.12131225E-3,.62E-6,0
ONEWEB-0720,2023-029AR,2026-07-16T20:14:56.488704,13.19726484,.00021933,87.9184,299.0713,107.3330,252.8043,0,U,55835,999,16275,.15667273E-3,.76E-6,0
ONEWEB-0537,2023-043A,2026-07-17T12:25:02.573760,13.16594300,.0002145,87.9077,222.7467,88.5477,271.5900,0,U,56046,999,16295,.27641055E-3,.119E-5,0
ONEWEB-0538,2023-043B,2026-07-17T12:15:55.159776,13.16593960,.00023306,87.9078,222.7506,93.5309,266.6089,0,U,56047,999,16296,.10813176E-3,.54E-6,0
ONEWEB-0546,2023-043C,2026-07-17T11:57:40.801824,13.16593624,.00022375,87.9077,222.7532,75.4322,284.7057,0,U,56048,999,16295,.14454015E-3,.68E-6,0
ONEWEB-0547,2023-043D,2026-07-17T01:44:23.952480,13.21827307,.00022418,87.9236,238.0273,98.6698,261.4690,0,U,56049,999,16217,.10179699E-3,.55E-6,0
ONEWEB-0548,2023-043E,2026-07-17T07:04:41.742048,13.16594971,.00015951,87.9078,222.7892,93.7295,266.4018,0,U,56050,999,16292,.18472542E-3,.83E-6,0
ONEWEB-0549,2023-043F,2026-07-17T08:51:56.330208,13.21827342,.00024949,87.9229,237.9731,95.9665,264.1753,0,U,56051,999,16221,.23671333E-3,.111E-5,0
ONEWEB-0550,2023-043G,2026-07-17T01:16:33.893184,13.21827235,.00018908,87.9232,238.0343,98.4770,261.6578,0,U,56052,999,16217,.23085204E-3,.108E-5,0
ONEWEB-0551,2023-043H,2026-07-17T10:13:31.347264,13.15547768,.00024282,87.8977,253.2013,101.2686,258.8717,0,U,56053,999,16037,-.12043285E-3,-.33E-6,0
ONEWEB-0552,2023-043J,2026-07-17T13:52:18.038784,13.21826247,.00021154,87.9231,237.9342,102.2317,257.9054,0,U,56054,999,16224,-.16444846E-3,-.55E-6,0
ONEWEB-0553,2023-043K,2026-07-17T12:06:47.927232,13.16594170,.00019978,87.9074,222.7521,83.2437,276.8921,0,U,56055,999,16296,-.13526991E-3,-.39E-6,0
ONEWEB-0554,2023-043L,2026-07-17T11:48:33.733440,13.16594210,.00015423,87.9074,222.7633,95.4382,264.6925,0,U,56056,999,16294,-.88771414E-4,-.21E-6,0
ONEWEB-0555,2023-043M,2026-07-17T01:46:39.428544,13.16594390,.00021485,87.9080,222.8349,78.8174,281.3199,0,U,56057,999,16289,.65639984E-4,.38E-6,0
ONEWEB-0557,2023-043N,2026-07-17T02:07:10.593120,13.16594264,.00012047,87.9078,222.8418,58.7865,301.3384,0,U,56058,999,16289,-.7300409E-4,-.15E-6,0
ONEWEB-0558,2023-043P,2026-07-17T02:48:36.279648,13.21826215,.00024229,87.9235,238.0218,94.9702,265.1708,0,U,56059,999,16219,.95522685E-4,.52E-6,0
ONEWEB-0559,2023-043Q,2026-07-17T13:25:40.205568,13.21824040,.00022395,87.9235,237.9291,100.2479,259.8907,0,U,56060,999,16226,-.19940091E-3,-.69E-6,0
ONEWEB-0566,2023-043R,2026-07-17T13:15:58.931424,13.21824325,.00023256,87.9232,237.9287,101.9521,258.1874,0,U,56061,999,16224,-.94757003E-4,-.26E-6,0
ONEWEB-0568,2023-043S,2026-07-17T11:39:25.765632,13.16596093,.00021066,87.9076,222.7524,85.5454,274.5918,0,U,56062,999,16296,-.14053205E-3,-.41E-6,0
ONEWEB-0574,2023-043T,2026-07-17T02:12:17.439264,13.21825977,.00018841,87.9240,238.0251,94.2196,265.9153,0,U,56063,999,16222,.26667462E-4,.24E-6,0
ONEWEB-0575,2023-043U,2026-07-17T11:30:18.219456,13.16595842,.00017255,87.9077,222.7499,84.4690,275.6638,0,U,56064,999,16295,-.23534869E-3,-.77E-6,0
ONEWEB-0576,2023-043V,2026-07-17T01:55:45.509376,13.16596127,.00018907,87.9083,222.8379,89.8182,270.3165,0,U,56065,999,16289,.28907089E-4,.24E-6,0
ONEWEB-0577,2023-043W,2026-07-17T02:04:53.410656,13.16596119,.00013255,87.9082,222.8342,84.4237,275.7045,0,U,56066,999,16292,-.11528775E-4,.8E-7,0
